[
    {
        "Altitude(m)": 607886.6721267658,
        "Argument of Periapsis(deg)": 0.0,
        "Eccentricity": 0.0,
        "Inclination(deg)": 60.0,
        "Latitude(deg)": 40.99839131844917,
        "Longitude(deg)": -120.02699949699581,
        "Mean Anomaly(deg)": 49.09089999999999,
        "RAAN(deg)": 310.0,
        "Satellite Name": "Test1 1367",
        "Satellite Number": 1367,
        "Semi-Major Axis(m)": 6980739.136638005,
        "Time(s)": 0
    },
    {
        "Altitude(m)": 607987.5860481357,
        "Argument of Periapsis(deg)": 0.00010418945913296404,
        "Eccentricity": 0.0,
        "Inclination(deg)": 60.0,
        "Latitude(deg)": 41.46348118817429,
        "Longitude(deg)": -119.52277168425194,
        "Mean Anomaly(deg)": 49.711006145461845,
        "RAAN(deg)": 309.99957995086027,
        "Satellite Name": "Test1 1367",
        "Satellite Number": 1367,
        "Semi-Major Axis(m)": 6980739.136638005,
        "Time(s)": 10
    },
    {
        "Altitude(m)": 608088.5495935146,
        "Argument of Periapsis(deg)": 0.0002083789182659281,
        "Eccentricity": 0.0,
        "Inclination(deg)": 60.0,
        "Latitude(deg)": 41.9259068851938,
        "Longitude(deg)": -119.01072088106244,
        "Mean Anomaly(deg)": -309.6688877090764,
        "RAAN(deg)": 309.99915990172053,
        "Satellite Name": "Test1 1367",
        "Satellite Number": 1367,
        "Semi-Major Axis(m)": 6980739.136638005,
        "Time(s)": 20
    },
    {
        "Altitude(m)": 608189.4995416624,
        "Argument of Periapsis(deg)": 0.00031256837739889213,
        "Eccentricity": 0.0,
        "Inclination(deg)": 60.0,
        "Latitude(deg)": 42.38558766005935,
        "Longitude(deg)": -118.49065104722982,
        "Mean Anomaly(deg)": -309.0487815636145,
        "RAAN(deg)": 309.9987398525808,
        "Satellite Name": "Test1 1367",
        "Satellite Number": 1367,
        "Semi-Major Axis(m)": 6980739.136638005,
        "Time(s)": 30
    },
    {
        "Altitude(m)": 608290.3728980651,
        "Argument of Periapsis(deg)": 0.0004167578365318562,
        "Eccentricity": 0.0,
        "Inclination(deg)": 60.0,
        "Latitude(deg)": 42.84244021629164,
        "Longitude(deg)": -117.96236227586589,
        "Mean Anomaly(deg)": -308.4286754181527,
        "RAAN(deg)": 309.99831980344106,
        "Satellite Name": "Test1 1367",
        "Satellite Number": 1367,
        "Semi-Major Axis(m)": 6980739.136638005,
        "Time(s)": 40
    },
    {
        "Altitude(m)": 608391.1069261885,
        "Argument of Periapsis(deg)": 0.0005209472956648203,
        "Eccentricity": 0.0,
        "Inclination(deg)": 60.0,
        "Latitude(deg)": 43.296378630995854,
        "Longitude(deg)": -117.42565188840877,
        "Mean Anomaly(deg)": -307.8085692726908,
        "RAAN(deg)": 309.99789975430133,
        "Satellite Name": "Test1 1367",
        "Satellite Number": 1367,
        "Semi-Major Axis(m)": 6980739.136638005,
        "Time(s)": 50
    },
    {
        "Altitude(m)": 608491.6391785385,
        "Argument of Periapsis(deg)": 0.0006251367547977843,
        "Eccentricity": 0.0,
        "Inclination(deg)": 60.0,
        "Latitude(deg)": 43.747314274765266,
        "Longitude(deg)": -116.88031403653777,
        "Mean Anomaly(deg)": -307.18846312722906,
        "RAAN(deg)": 309.99747970516154,
        "Satellite Name": "Test1 1367",
        "Satellite Number": 1367,
        "Semi-Major Axis(m)": 6980739.136638005,
        "Time(s)": 60
    },
    {
        "Altitude(m)": 608591.9075275764,
        "Argument of Periapsis(deg)": 0.0007293262139307483,
        "Eccentricity": 0.0,
        "Inclination(deg)": 60.0,
        "Latitude(deg)": 44.19515573110924,
        "Longitude(deg)": -116.3261393257408,
        "Mean Anomaly(deg)": -306.5683569817672,
        "RAAN(deg)": 309.99705965602186,
        "Satellite Name": "Test1 1367",
        "Satellite Number": 1367,
        "Semi-Major Axis(m)": 6980739.136638005,
        "Time(s)": 70
    },
    {
        "Altitude(m)": 608691.8501963848,
        "Argument of Periapsis(deg)": 0.0008335156730637124,
        "Eccentricity": 0.0,
        "Inclination(deg)": 60.0,
        "Latitude(deg)": 44.639808715668345,
        "Longitude(deg)": -115.76291597542247,
        "Mean Anomaly(deg)": -305.94825083630536,
        "RAAN(deg)": 309.99663960688207,
        "Satellite Name": "Test1 1367",
        "Satellite Number": 1367,
        "Semi-Major Axis(m)": 6980739.136638005,
        "Time(s)": 80
    },
    {
        "Altitude(m)": 608791.405789142,
        "Argument of Periapsis(deg)": 0.0009377051321966765,
        "Eccentricity": 0.0,
        "Inclination(deg)": 60.0,
        "Latitude(deg)": 45.08117599551933,
        "Longitude(deg)": -115.19042949194011,
        "Mean Anomaly(deg)": -305.32814469084354,
        "RAAN(deg)": 309.9962195577423,
        "Satellite Name": "Test1 1367",
        "Satellite Number": 1367,
        "Semi-Major Axis(m)": 6980739.136638005,
        "Time(s)": 90
    },
    {
        "Altitude(m)": 608890.5133213695,
        "Argument of Periapsis(deg)": 0.0010418945913296407,
        "Eccentricity": 0.0,
        "Inclination(deg)": 60.0,
        "Latitude(deg)": 45.51915730890942,
        "Longitude(deg)": -114.60846236970234,
        "Mean Anomaly(deg)": -304.70803854538167,
        "RAAN(deg)": 309.99579950860254,
        "Satellite Name": "Test1 1367",
        "Satellite Number": 1367,
        "Semi-Major Axis(m)": 6980739.136638005,
        "Time(s)": 100
    },
    {
        "Altitude(m)": 608989.1122499037,
        "Argument of Periapsis(deg)": 0.0011460840504626045,
        "Eccentricity": 0.0,
        "Inclination(deg)": 60.0,
        "Latitude(deg)": 45.95364928581073,
        "Longitude(deg)": -114.01679533557768,
        "Mean Anomaly(deg)": -304.0879323999199,
        "RAAN(deg)": 309.9953794594628,
        "Satellite Name": "Test1 1367",
        "Satellite Number": 1367,
        "Semi-Major Axis(m)": 6980739.136638005,
        "Time(s)": 110
    },
    {
        "Altitude(m)": 609087.1425026507,
        "Argument of Periapsis(deg)": 0.0012502735095955685,
        "Eccentricity": 0.0,
        "Inclination(deg)": 60.0,
        "Latitude(deg)": 46.38454536972156,
        "Longitude(deg)": -113.41520711337279,
        "Mean Anomaly(deg)": -303.46782625445803,
        "RAAN(deg)": 309.9949594103231,
        "Satellite Name": "Test1 1367",
        "Satellite Number": 1367,
        "Semi-Major Axis(m)": 6980739.136638005,
        "Time(s)": 120
    },
    {
        "Altitude(m)": 609184.5445080276,
        "Argument of Periapsis(deg)": 0.0013544629687285324,
        "Eccentricity": 0.0,
        "Inclination(deg)": 60.0,
        "Latitude(deg)": 46.81173574120142,
        "Longitude(deg)": -112.80347422385938,
        "Mean Anomaly(deg)": -302.8477201089962,
        "RAAN(deg)": 309.99453936118334,
        "Satellite Name": "Test1 1367",
        "Satellite Number": 1367,
        "Semi-Major Axis(m)": 6980739.136638005,
        "Time(s)": 130
    },
    {
        "Altitude(m)": 609281.2592241609,
        "Argument of Periapsis(deg)": 0.0014586524278614966,
        "Eccentricity": 0.0,
        "Inclination(deg)": 60.0,
        "Latitude(deg)": 47.235107243677966,
        "Longitude(deg)": -112.18137233594024,
        "Mean Anomaly(deg)": -302.22761396353434,
        "RAAN(deg)": 309.9941193120436,
        "Satellite Name": "Test1 1367",
        "Satellite Number": 1367,
        "Semi-Major Axis(m)": 6980739.136638005,
        "Time(s)": 140
    },
    {
        "Altitude(m)": 609377.2281677463,
        "Argument of Periapsis(deg)": 0.0015628418869944607,
        "Eccentricity": 0.0,
        "Inclination(deg)": 60.0,
        "Latitude(deg)": 47.654543312118996,
        "Longitude(deg)": -111.54867614601751,
        "Mean Anomaly(deg)": -301.6075078180726,
        "RAAN(deg)": 309.9936992629039,
        "Satellite Name": "Test1 1367",
        "Satellite Number": 1367,
        "Semi-Major Axis(m)": 6980739.136638005,
        "Time(s)": 150
    },
    {
        "Altitude(m)": 609472.3934426259,
        "Argument of Periapsis(deg)": 0.0016670313461274247,
        "Eccentricity": 0.0,
        "Inclination(deg)": 60.0,
        "Latitude(deg)": 48.06992390522985,
        "Longitude(deg)": -110.90515930132207,
        "Mean Anomaly(deg)": -300.9874016726107,
        "RAAN(deg)": 309.99327921376414,
        "Satellite Name": "Test1 1367",
        "Satellite Number": 1367,
        "Semi-Major Axis(m)": 6980739.136638005,
        "Time(s)": 160
    },
    {
        "Altitude(m)": 609566.6977680271,
        "Argument of Periapsis(deg)": 0.0017712208052603888,
        "Eccentricity": 0.0,
        "Inclination(deg)": 60.0,
        "Latitude(deg)": 48.48112544189855,
        "Longitude(deg)": -110.25059588302003,
        "Mean Anomaly(deg)": -300.3672955271489,
        "RAAN(deg)": 309.99285916462435,
        "Satellite Name": "Test1 1367",
        "Satellite Number": 1367,
        "Semi-Major Axis(m)": 6980739.136638005,
        "Time(s)": 170
    },
    {
        "Altitude(m)": 609660.0845064847,
        "Argument of Periapsis(deg)": 0.001875410264393353,
        "Eccentricity": 0.0,
        "Inclination(deg)": 60.0,
        "Latitude(deg)": 48.888020742680276,
        "Longitude(deg)": -109.58476042633356,
        "Mean Anomaly(deg)": -299.74718938168706,
        "RAAN(deg)": 309.9924391154846,
        "Satellite Name": "Test1 1367",
        "Satellite Number": 1367,
        "Semi-Major Axis(m)": 6980739.136638005,
        "Time(s)": 180
    },
    {
        "Altitude(m)": 609752.4976913749,
        "Argument of Periapsis(deg)": 0.0019795997235263173,
        "Eccentricity": 0.0,
        "Inclination(deg)": 60.0,
        "Latitude(deg)": 49.29047897718417,
        "Longitude(deg)": -108.9074279935367,
        "Mean Anomaly(deg)": -299.12708323622525,
        "RAAN(deg)": 309.9920190663449,
        "Satellite Name": "Test1 1367",
        "Satellite Number": 1367,
        "Semi-Major Axis(m)": 6980739.136638005,
        "Time(s)": 190
    }
]